STARLINK-34099          
1 63959U 25099H   26068.30304514  .00034984  00000+0  12723-2 0  9993
2 63959  43.0018 178.7135 0002673 282.2110  77.8442 15.27642428 47279
ARCSTONE                
1 64540U 25135N   26068.88991918  .00026427  00000+0  94900-3 0  9995
2 64540  97.4495 185.9194 0004120 166.7863 193.3485 15.28638458 39847
